GLOBALSTAR M057         
1 25943U 99058A   25024.07817634 -.00000038  00000+0  50142-3 0  9999
2 25943  51.9999  37.1800 0002682  86.3332 273.7824 12.24808421149345
GLOBALSTAR M059         
1 25944U 99058B   25024.09603431 -.00000034  00000+0  64906-3 0  9999
2 25944  51.9993 236.9864 0001342  69.5142 102.4211 11.99972844145495
GLOBALSTAR M031         
1 25946U 99058D   25023.76610031 -.00000039  00000+0  52651-3 0  9997
2 25946  51.9948 144.5208 0001072 199.2306 313.5866 12.16026905146979
GLOBALSTAR M039         
1 25961U 99062A   25023.89810175 -.00000055  00000+0  27385-3 0  9998
2 25961  51.9870 348.1906 0003014  32.8118 327.2935 12.62316355161998
GLOBALSTAR M034         
1 25962U 99062B   25023.95103227  .00000036  00000+0  18508-2 0  9993
2 25962  51.9892  26.3172 0014227 128.6656 245.3195 11.79441588121372
GLOBALSTAR M029         
1 25963U 99062C   25023.76135965 -.00000086  00000+0  17091-5 0  9992
2 25963  51.9801 126.0503 0003000 176.7374 351.3001 11.99890532151788
GLOBALSTAR M061         
1 25964U 99062D   25023.92197269 -.00000058  00000+0  35962-3 0  9990
2 25964  51.9759 208.5138 0007067  59.8915 120.7973 11.76770519104196
